SHIJIAN-6 02B (SJ-6 02B)
1 29506U 06046B   26116.82549017  .00001829  00000+0  14710-3 0  9995
2 29506  97.7143 146.2074 0010972 237.0239 122.9931 15.01216228 63031
FGRST (GLAST)           
1 33053U 08029A   26116.56131737  .00003868  00000+0  14300-3 0  9997
2 33053  25.5812 202.8666 0008747  78.7975 281.3546 15.23664693987950
SDO                     
1 36395U 10005A   26116.45405531 -.00000056  00000+0  00000+0 0  9995
2 36395  34.5467  87.1205 0001115  32.9808 156.0340  1.00272690 59547
CRYOSAT 2               
1 36508U 10013A   26116.87386436  .00000234  00000+0  57420-4 0  9998
2 36508  92.0290 264.8471 0002673  92.7566 267.3947 14.51905490850639
X-SAT                   
1 37389U 11015C   26116.90509318  .00000296  00000+0  14320-3 0  9998
2 37389  98.3486  96.3816 0014874 129.9397 230.3093 14.25190990780372
GCOM-W1 (SHIZUKU)       
1 38337U 12025A   26116.80378512  .00000540  00000+0  12976-3 0  9990
2 38337  98.1994  58.1474 0001291  94.3634 319.6101 14.57120439741556
NUSTAR                  
1 38358U 12031A   26116.91667823  .00012880  00000+0  75115-3 0  9992
2 38358   6.0262  58.5724 0007204  62.0318 186.6029 15.08295723  4568
NEOSSAT                 
1 39089U 13009D   26116.78059161  .00000159  00000+0  69767-4 0  9998
2 39089  98.4170 298.0380 0011815  44.5984 315.6151 14.35807990689360
BRITE-AUSTRIA           
1 39091U 13009F   26116.73508403  .00000199  00000+0  82263-4 0  9994
2 39091  98.3986 297.4470 0010900  39.5143 320.6837 14.36520770689664
IRIS                    
1 39197U 13033A   26116.57972459  .00001247  00000+0  14908-3 0  9991
2 39197  97.9369 316.0126 0025612 125.9609 234.3987 14.85775368692716
HISAKI (SPRINT-A)       
1 39253U 13049A   26116.72159921  .00000148  00000+0  11259-3 0  9994
2 39253  29.7187 121.6609 0136625 319.6471  39.4032 13.55538000624437
CASSIOPE                
1 39265U 13055A   26116.79147961  .00023959 -42967-6  27959-3 0  9997
2 39265  80.9132 128.9518 0302972 234.8116 122.4402 15.21787039659842
STSAT-3                 
1 39422U 13066G   26116.83581742  .00003593  00000+0  27521-3 0  9999
2 39422  97.6184  87.5903 0008904 189.0651 171.0414 15.02453110676492
SWARM B                 
1 39451U 13067A   26116.80238049  .00004191  00000+0  15117-3 0  9991
2 39451  87.7484 357.9192 0002390  91.9006 268.2517 15.28244607675397
SWARM A                 
1 39452U 13067B   26116.84205758  .00012744  00000+0  22781-3 0  9995
2 39452  87.3306  75.2943 0003684  89.1691 270.9991 15.49866933698292
SWARM C                 
1 39453U 13067C   26116.84199602  .00012614  00000+0  22546-3 0  9991
2 39453  87.3308  73.8755 0003709  89.4073 270.7613 15.49867928698255
BRITE-CA1 (TORONTO)     
1 40020U 14033L   26116.80659968  .00001021  00000+0  16040-3 0  9991
2 40020  97.9658 246.7073 0080053  81.6720 279.3554 14.72598610634653
