[{"OBJECT_NAME":"SHIJIAN-6 02B (SJ-6 02B)","OBJECT_ID":"2006-046B","EPOCH":"2026-04-26T19:48:42.350688","MEAN_MOTION":15.01216228,"ECCENTRICITY":0.0010972,"INCLINATION":97.7143,"RA_OF_ASC_NODE":146.2074,"ARG_OF_PERICENTER":237.0239,"MEAN_ANOMALY":122.9931,"EPHEMERIS_TYPE":0,"CLASSIFICATION_TYPE":"U","NORAD_CAT_ID":29506,"ELEMENT_SET_NO":999,"REV_AT_EPOCH":6303,"BSTAR":0.0001471,"MEAN_MOTION_DOT":1.829e-5,"MEAN_MOTION_DDOT":0},{"OBJECT_NAME":"FGRST (GLAST)","OBJECT_ID":"2008-029A","EPOCH":"2026-04-26T13:28:17.820768","MEAN_MOTION":15.23664693,"ECCENTRICITY":0.0008747,"INCLINATION":25.5812,"RA_OF_ASC_NODE":202.8666,"ARG_OF_PERICENTER":78.7975,"MEAN_ANOMALY":281.3546,"EPHEMERIS_TYPE":0,"CLASSIFICATION_TYPE":"U","NORAD_CAT_ID":33053,"ELEMENT_SET_NO":999,"REV_AT_EPOCH":98795,"BSTAR":0.000143,"MEAN_MOTION_DOT":3.868e-5,"MEAN_MOTION_DDOT":0},{"OBJECT_NAME":"SDO","OBJECT_ID":"2010-005A","EPOCH":"2026-04-26T10:53:50.378784","MEAN_MOTION":1.0027269,"ECCENTRICITY":0.0001115,"INCLINATION":34.5467,"RA_OF_ASC_NODE":87.1205,"ARG_OF_PERICENTER":32.9808,"MEAN_ANOMALY":156.034,"EPHEMERIS_TYPE":0,"CLASSIFICATION_TYPE":"U","NORAD_CAT_ID":36395,"ELEMENT_SET_NO":999,"REV_AT_EPOCH":5954,"BSTAR":0,"MEAN_MOTION_DOT":-5.6e-7,"MEAN_MOTION_DDOT":0},{"OBJECT_NAME":"CRYOSAT 2","OBJECT_ID":"2010-013A","EPOCH":"2026-04-26T20:58:21.880704","MEAN_MOTION":14.5190549,"ECCENTRICITY":0.0002673,"INCLINATION":92.029,"RA_OF_ASC_NODE":264.8471,"ARG_OF_PERICENTER":92.7566,"MEAN_ANOMALY":267.3947,"EPHEMERIS_TYPE":0,"CLASSIFICATION_TYPE":"U","NORAD_CAT_ID":36508,"ELEMENT_SET_NO":999,"REV_AT_EPOCH":85063,"BSTAR":5.742e-5,"MEAN_MOTION_DOT":2.34e-6,"MEAN_MOTION_DDOT":0},{"OBJECT_NAME":"X-SAT","OBJECT_ID":"2011-015C","EPOCH":"2026-04-26T21:43:20.050752","MEAN_MOTION":14.2519099,"ECCENTRICITY":0.0014874,"INCLINATION":98.3486,"RA_OF_ASC_NODE":96.3816,"ARG_OF_PERICENTER":129.9397,"MEAN_ANOMALY":230.3093,"EPHEMERIS_TYPE":0,"CLASSIFICATION_TYPE":"U","NORAD_CAT_ID":37389,"ELEMENT_SET_NO":999,"REV_AT_EPOCH":78037,"BSTAR":0.0001432,"MEAN_MOTION_DOT":2.96e-6,"MEAN_MOTION_DDOT":0},{"OBJECT_NAME":"GCOM-W1 (SHIZUKU)","OBJECT_ID":"2012-025A","EPOCH":"2026-04-26T19:17:27.034368","MEAN_MOTION":14.57120439,"ECCENTRICITY":0.0001291,"INCLINATION":98.1994,"RA_OF_ASC_NODE":58.1474,"ARG_OF_PERICENTER":94.3634,"MEAN_ANOMALY":319.6101,"EPHEMERIS_TYPE":0,"CLASSIFICATION_TYPE":"U","NORAD_CAT_ID":38337,"ELEMENT_SET_NO":999,"REV_AT_EPOCH":74155,"BSTAR":0.00012976,"MEAN_MOTION_DOT":5.4e-6,"MEAN_MOTION_DDOT":0},{"OBJECT_NAME":"NUSTAR","OBJECT_ID":"2012-031A","EPOCH":"2026-04-26T22:00:00.999072","MEAN_MOTION":15.08295723,"ECCENTRICITY":0.0007204,"INCLINATION":6.0262,"RA_OF_ASC_NODE":58.5724,"ARG_OF_PERICENTER":62.0318,"MEAN_ANOMALY":186.6029,"EPHEMERIS_TYPE":0,"CLASSIFICATION_TYPE":"U","NORAD_CAT_ID":38358,"ELEMENT_SET_NO":999,"REV_AT_EPOCH":456,"BSTAR":0.00075115,"MEAN_MOTION_DOT":0.0001288,"MEAN_MOTION_DDOT":0},{"OBJECT_NAME":"NEOSSAT","OBJECT_ID":"2013-009D","EPOCH":"2026-04-26T18:44:03.115104","MEAN_MOTION":14.3580799,"ECCENTRICITY":0.0011815,"INCLINATION":98.417,"RA_OF_ASC_NODE":298.038,"ARG_OF_PERICENTER":44.5984,"MEAN_ANOMALY":315.6151,"EPHEMERIS_TYPE":0,"CLASSIFICATION_TYPE":"U","NORAD_CAT_ID":39089,"ELEMENT_SET_NO":999,"REV_AT_EPOCH":68936,"BSTAR":6.9767e-5,"MEAN_MOTION_DOT":1.59e-6,"MEAN_MOTION_DDOT":0},{"OBJECT_NAME":"BRITE-AUSTRIA","OBJECT_ID":"2013-009F","EPOCH":"2026-04-26T17:38:31.260192","MEAN_MOTION":14.3652077,"ECCENTRICITY":0.00109,"INCLINATION":98.3986,"RA_OF_ASC_NODE":297.447,"ARG_OF_PERICENTER":39.5143,"MEAN_ANOMALY":320.6837,"EPHEMERIS_TYPE":0,"CLASSIFICATION_TYPE":"U","NORAD_CAT_ID":39091,"ELEMENT_SET_NO":999,"REV_AT_EPOCH":68966,"BSTAR":8.2263e-5,"MEAN_MOTION_DOT":1.99e-6,"MEAN_MOTION_DDOT":0},{"OBJECT_NAME":"IRIS","OBJECT_ID":"2013-033A","EPOCH":"2026-04-26T13:54:48.204576","MEAN_MOTION":14.85775368,"ECCENTRICITY":0.0025612,"INCLINATION":97.9369,"RA_OF_ASC_NODE":316.0126,"ARG_OF_PERICENTER":125.9609,"MEAN_ANOMALY":234.3987,"EPHEMERIS_TYPE":0,"CLASSIFICATION_TYPE":"U","NORAD_CAT_ID":39197,"ELEMENT_SET_NO":999,"REV_AT_EPOCH":69271,"BSTAR":0.00014908,"MEAN_MOTION_DOT":1.247e-5,"MEAN_MOTION_DDOT":0},{"OBJECT_NAME":"HISAKI (SPRINT-A)","OBJECT_ID":"2013-049A","EPOCH":"2026-04-26T17:19:06.171744","MEAN_MOTION":13.55538,"ECCENTRICITY":0.0136625,"INCLINATION":29.7187,"RA_OF_ASC_NODE":121.6609,"ARG_OF_PERICENTER":319.6471,"MEAN_ANOMALY":39.4032,"EPHEMERIS_TYPE":0,"CLASSIFICATION_TYPE":"U","NORAD_CAT_ID":39253,"ELEMENT_SET_NO":999,"REV_AT_EPOCH":62443,"BSTAR":0.00011259,"MEAN_MOTION_DOT":1.48e-6,"MEAN_MOTION_DDOT":0},{"OBJECT_NAME":"CASSIOPE","OBJECT_ID":"2013-055A","EPOCH":"2026-04-26T18:59:43.838304","MEAN_MOTION":15.21787039,"ECCENTRICITY":0.0302972,"INCLINATION":80.9132,"RA_OF_ASC_NODE":128.9518,"ARG_OF_PERICENTER":234.8116,"MEAN_ANOMALY":122.4402,"EPHEMERIS_TYPE":0,"CLASSIFICATION_TYPE":"U","NORAD_CAT_ID":39265,"ELEMENT_SET_NO":999,"REV_AT_EPOCH":65984,"BSTAR":0.00027959,"MEAN_MOTION_DOT":0.00023959,"MEAN_MOTION_DDOT":-4.2967e-7},{"OBJECT_NAME":"STSAT-3","OBJECT_ID":"2013-066G","EPOCH":"2026-04-26T20:03:34.625088","MEAN_MOTION":15.0245311,"ECCENTRICITY":0.0008904,"INCLINATION":97.6184,"RA_OF_ASC_NODE":87.5903,"ARG_OF_PERICENTER":189.0651,"MEAN_ANOMALY":171.0414,"EPHEMERIS_TYPE":0,"CLASSIFICATION_TYPE":"U","NORAD_CAT_ID":39422,"ELEMENT_SET_NO":999,"REV_AT_EPOCH":67649,"BSTAR":0.00027521,"MEAN_MOTION_DOT":3.593e-5,"MEAN_MOTION_DDOT":0},{"OBJECT_NAME":"SWARM B","OBJECT_ID":"2013-067A","EPOCH":"2026-04-26T19:15:25.674336","MEAN_MOTION":15.28244607,"ECCENTRICITY":0.000239,"INCLINATION":87.7484,"RA_OF_ASC_NODE":357.9192,"ARG_OF_PERICENTER":91.9006,"MEAN_ANOMALY":268.2517,"EPHEMERIS_TYPE":0,"CLASSIFICATION_TYPE":"U","NORAD_CAT_ID":39451,"ELEMENT_SET_NO":999,"REV_AT_EPOCH":67539,"BSTAR":0.00015117,"MEAN_MOTION_DOT":4.191e-5,"MEAN_MOTION_DDOT":0},{"OBJECT_NAME":"SWARM A","OBJECT_ID":"2013-067B","EPOCH":"2026-04-26T20:12:33.774912","MEAN_MOTION":15.49866933,"ECCENTRICITY":0.0003684,"INCLINATION":87.3306,"RA_OF_ASC_NODE":75.2943,"ARG_OF_PERICENTER":89.1691,"MEAN_ANOMALY":270.9991,"EPHEMERIS_TYPE":0,"CLASSIFICATION_TYPE":"U","NORAD_CAT_ID":39452,"ELEMENT_SET_NO":999,"REV_AT_EPOCH":69829,"BSTAR":0.00022781,"MEAN_MOTION_DOT":0.00012744,"MEAN_MOTION_DDOT":0},{"OBJECT_NAME":"SWARM C","OBJECT_ID":"2013-067C","EPOCH":"2026-04-26T20:12:28.456128","MEAN_MOTION":15.49867928,"ECCENTRICITY":0.0003709,"INCLINATION":87.3308,"RA_OF_ASC_NODE":73.8755,"ARG_OF_PERICENTER":89.4073,"MEAN_ANOMALY":270.7613,"EPHEMERIS_TYPE":0,"CLASSIFICATION_TYPE":"U","NORAD_CAT_ID":39453,"ELEMENT_SET_NO":999,"REV_AT_EPOCH":69825,"BSTAR":0.00022546,"MEAN_MOTION_DOT":0.00012614,"MEAN_MOTION_DDOT":0},{"OBJECT_NAME":"BRITE-CA1 (TORONTO)","OBJECT_ID":"2014-033L","EPOCH":"2026-04-26T19:21:30.212352","MEAN_MOTION":14.7259861,"ECCENTRICITY":0.0080053,"INCLINATION":97.9658,"RA_OF_ASC_NODE":246.7073,"ARG_OF_PERICENTER":81.672,"MEAN_ANOMALY":279.3554,"EPHEMERIS_TYPE":0,"CLASSIFICATION_TYPE":"U","NORAD_CAT_ID":40020,"ELEMENT_SET_NO":999,"REV_AT_EPOCH":63465,"BSTAR":0.0001604,"MEAN_MOTION_DOT":1.021e-5,"MEAN_MOTION_DDOT":0}]
